{
  "66639": {
    "noradId": "66639",
    "tle": [
      "1 66639C 25271Y   26002.78451389  .00019174  00000+0  47837-3 0    20",
      "2 66639  53.1599  87.5083 0001197  84.3188 356.9527 15.39602083    10"
    ]
  },
  "66640": {
    "noradId": "66640",
    "tle": [
      "1 66640C 25271Z   26002.78034722  .00029982  00000+0  74813-3 0    22",
      "2 66640  53.1597  87.6299 0001389  87.2054 279.4724 15.39585817    10"
    ]
  },
  "66641": {
    "noradId": "66641",
    "tle": [
      "1 66641C 25271AA  26002.78243056  .00015456  00000+0  38561-3 0    26",
      "2 66641  53.1595  87.2642 0001191  95.5425 101.1124 15.39604593    10"
    ]
  },
  "66642": {
    "noradId": "66642",
    "tle": [
      "1 66642C 25271AB  26002.78034722  .00031302  00000+0  78105-3 0    21",
      "2 66642  53.1594  87.3223 0001634  96.3449  64.8422 15.39585092    11"
    ]
  },
  "66643": {
    "noradId": "66643",
    "tle": [
      "1 66643C 25271AC  26002.77965278  .00024969  00000+0  62310-3 0    22",
      "2 66643  53.1597  87.4800 0000944  87.4321 352.6583 15.39588459    16"
    ]
  },
  "66644": {
    "noradId": "66644",
    "tle": [
      "1 66644C 25271AD  26002.78520833  .00012228  00000+0  30517-3 0    27",
      "2 66644  53.1593  87.3034 0001367 103.8270  82.4879 15.39599693    15"
    ]
  },
  "66791": {
    "noradId": "66791",
    "tle": [
      "1 66791C 25278A   26002.78520833 -.00001528  00000+0 -36472-4 0    27",
      "2 66791  43.0002 127.9195 0001347 268.5830 113.1865 15.40694619    12"
    ]
  },
  "66792": {
    "noradId": "66792",
    "tle": [
      "1 66792C 25278B   26002.78659722  .00031159  00000+0  74373-3 0    20",
      "2 66792  43.0005 127.4586 0001391 260.9422 315.1590 15.40656411    14"
    ]
  },
  "66793": {
    "noradId": "66793",
    "tle": [
      "1 66793C 25278C   26002.78173611 -.00006202  00000+0 -14799-3 0    28",
      "2 66793  43.0007 127.2743 0001849 281.5156 354.6454 15.40703811    15"
    ]
  },
  "66794": {
    "noradId": "66794",
    "tle": [
      "1 66794C 25278D   26002.78173611 -.00047051  00000+0 -11236-2 0    28",
      "2 66794  43.0001 127.6972 0001732 282.1296 179.9527 15.40717465    10"
    ]
  },
  "66795": {
    "noradId": "66795",
    "tle": [
      "1 66795C 25278E   26002.78312500  .00025774  00000+0  61519-3 0    27",
      "2 66795  42.9999 127.8105 0001636 268.4803 151.5032 15.40661893    19"
    ]
  },
  "66796": {
    "noradId": "66796",
    "tle": [
      "1 66796C 25278F   26002.78659722  .00002489  00000+0  12429-4 0    23",
      "2 66796  42.9911 122.1194 0001765 279.1937 280.9177 15.80859699    14"
    ]
  },
  "66797": {
    "noradId": "66797",
    "tle": [
      "1 66797C 25278G   26002.78243056  .00007312  00000+0  17448-3 0    28",
      "2 66797  43.0001 127.5725 0001608 262.0704 253.5603 15.40687200    18"
    ]
  },
  "66798": {
    "noradId": "66798",
    "tle": [
      "1 66798C 25278H   26002.78451389  .00002637  00000+0  62919-4 0    28",
      "2 66798  43.0006 127.3789 0001612 265.0452 336.7922 15.40690362    11"
    ]
  },
  "66799": {
    "noradId": "66799",
    "tle": [
      "1 66799C 25278J   26002.77965278 -.01408800  00000+0 -32952-1 0    21",
      "2 66799  43.0004 127.2006 0001645 271.9976  27.5409 15.42703741    17"
    ]
  },
  "66800": {
    "noradId": "66800",
    "tle": [
      "1 66800C 25278K   26002.78659722  .00008104  00000+0  19339-3 0    25",
      "2 66800  43.0007 127.3058 0001495 266.3263  11.9759 15.40683961    15"
    ]
  },
  "66801": {
    "noradId": "66801",
    "tle": [
      "1 66801C 25278L   26002.78243056 -.00094546  00000+0 -22547-2 0    26",
      "2 66801  43.0000 127.6607 0001070 275.8329 202.4506 15.40808583    15"
    ]
  },
  "66802": {
    "noradId": "66802",
    "tle": [
      "1 66802C 25278M   26002.78243056 -.02269200  00000+0 -48585-1 0    29",
      "2 66802  43.0003 127.1460 0001228 268.8756  61.5168 15.46204447    15"
    ]
  },
  "66803": {
    "noradId": "66803",
    "tle": [
      "1 66803C 25278N   26002.78104167  .00027480  00000+0  65584-3 0    27",
      "2 66803  43.0000 127.8810 0001350 275.5762 107.9483 15.40663766    19"
    ]
  },
  "66804": {
    "noradId": "66804",
    "tle": [
      "1 66804C 25278P   26002.78381944 -.00006737  00000+0 -16077-3 0    25",
      "2 66804  43.0000 127.8352 0001285 271.5069 139.8817 15.40698050    13"
    ]
  },
  "66805": {
    "noradId": "66805",
    "tle": [
      "1 66805C 25278Q   26002.78520833  .00021977  00000+0  52451-3 0    25",
      "2 66805  42.9999 127.7656 0001153 260.0940 183.8881 15.40668733    15"
    ]
  },
  "66806": {
    "noradId": "66806",
    "tle": [
      "1 66806C 25278R   26002.78520833  .00005401  00000+0  12880-3 0    22",
      "2 66806  43.0001 127.6153 0001407 277.2705 228.8347 15.40709964    13"
    ]
  },
  "66807": {
    "noradId": "66807",
    "tle": [
      "1 66807C 25278S   26002.78312500  .00025582  00000+0  61051-3 0    29",
      "2 66807  43.0001 127.5365 0001540 277.4515 254.4824 15.40666650    16"
    ]
  },
  "66808": {
    "noradId": "66808",
    "tle": [
      "1 66808C 25278T   26002.77965278  .00026153  00000+0  62415-3 0    25",
      "2 66808  43.0001 127.5263 0001423 274.5230 250.5693 15.40665772    11"
    ]
  },
  "66809": {
    "noradId": "66809",
    "tle": [
      "1 66809C 25278U   26002.77895833  .00009100  00000+0  21723-3 0    25",
      "2 66809  43.0008 127.3169 0001342 255.8037 352.5360 15.40674739    16"
    ]
  },
  "66810": {
    "noradId": "66810",
    "tle": [
      "1 66810C 25278V   26002.78659722  .00010696  00000+0  25515-3 0    28",
      "2 66810  43.0003 127.4261 0002001 276.5854 311.9115 15.40692895    17"
    ]
  },
  "66811": {
    "noradId": "66811",
    "tle": [
      "1 66811C 25278W   26002.78173611  .00018030  00000+0  43035-3 0    24",
      "2 66811  43.0004 127.4232 0001394 259.0107 314.9898 15.40670317    14"
    ]
  },
  "66812": {
    "noradId": "66812",
    "tle": [
      "1 66812C 25278X   26002.78173611  .00011444  00000+0  27306-3 0    20",
      "2 66812  43.0007 127.2414 0001246 255.2706  33.3312 15.40687183    19"
    ]
  },
  "66813": {
    "noradId": "66813",
    "tle": [
      "1 66813C 25278Y   26002.77965278  .00028380  00000+0  67714-3 0    22",
      "2 66813  43.0007 127.2221 0001565 278.9887  10.4870 15.40670268    13"
    ]
  }
}