OBJECT_NAME,OBJECT_ID,EPOCH,MEAN_MOTION,ECCENTRICITY,INCLINATION,RA_OF_ASC_NODE,ARG_OF_PERICENTER,MEAN_ANOMALY,EPHEMERIS_TYPE,CLASSIFICATION_TYPE,NORAD_CAT_ID,ELEMENT_SET_NO,REV_AT_EPOCH,BSTAR,MEAN_MOTION_DOT,MEAN_MOTION_DDOT,RMS,DATA_SOURCE
STARLINK-35908,2025-271Y,2026-01-02T18:49:42.000010,15.39602083,.0001197,53.1599,87.5083,84.3188,356.9527,0,C,66639,2,1,.47837E-3,.19174E-3,0,0.478,SpaceX-E
STARLINK-35921,2025-271Z,2026-01-02T18:43:41.999981,15.39585817,.0001389,53.1597,87.6299,87.2054,279.4724,0,C,66640,2,1,.74813E-3,.29982E-3,0,0.341,SpaceX-E
STARLINK-35923,2025-271AA,2026-01-02T18:46:42.000038,15.39604593,.0001191,53.1595,87.2642,95.5425,101.1124,0,C,66641,2,1,.38561E-3,.15456E-3,0,0.410,SpaceX-E
STARLINK-35926,2025-271AB,2026-01-02T18:43:41.999981,15.39585092,.0001634,53.1594,87.3223,96.3449,64.8422,0,C,66642,2,1,.78105E-3,.31302E-3,0,0.367,SpaceX-E
STARLINK-35918,2025-271AC,2026-01-02T18:42:42.000019,15.39588459,.0000944,53.1597,87.4800,87.4321,352.6583,0,C,66643,2,1,.6231E-3,.24969E-3,0,0.382,SpaceX-E
STARLINK-35938,2025-271AD,2026-01-02T18:50:41.999971,15.39599693,.0001367,53.1593,87.3034,103.8270,82.4879,0,C,66644,2,1,.30517E-3,.12228E-3,0,0.541,SpaceX-E
STARLINK-35867,2025-278A,2026-01-02T18:50:41.999971,15.40694619,.0001347,43.0002,127.9195,268.5830,113.1865,0,C,66791,2,1,-.36472E-4,-.15283E-4,0,0.470,SpaceX-E
STARLINK-35990,2025-278B,2026-01-02T18:52:41.999981,15.40656411,.0001391,43.0005,127.4586,260.9422,315.1590,0,C,66792,2,1,.74373E-3,.31159E-3,0,0.336,SpaceX-E
STARLINK-36051,2025-278C,2026-01-02T18:45:41.999990,15.40703811,.0001849,43.0007,127.2743,281.5156,354.6454,0,C,66793,2,1,-.14799E-3,-.62024E-4,0,0.465,SpaceX-E
STARLINK-36062,2025-278D,2026-01-02T18:45:41.999990,15.40717465,.0001732,43.0001,127.6972,282.1296,179.9527,0,C,66794,2,1,-.11236E-2,-.47051E-3,0,1.101,SpaceX-E
STARLINK-36047,2025-278E,2026-01-02T18:47:42.000000,15.40661893,.0001636,42.9999,127.8105,268.4803,151.5032,0,C,66795,2,1,.61519E-3,.25774E-3,0,0.378,SpaceX-E
STARLINK-35964,2025-278F,2026-01-02T18:52:41.999981,15.80859699,.0001765,42.9911,122.1194,279.1937,280.9177,0,C,66796,2,1,.12429E-4,.24891E-4,0,0.631,SpaceX-E
STARLINK-36099,2025-278G,2026-01-02T18:46:42.000038,15.40687200,.0001608,43.0001,127.5725,262.0704,253.5603,0,C,66797,2,1,.17448E-3,.73117E-4,0,0.423,SpaceX-E
STARLINK-36041,2025-278H,2026-01-02T18:49:42.000010,15.40690362,.0001612,43.0006,127.3789,265.0452,336.7922,0,C,66798,2,1,.62919E-4,.26366E-4,0,0.407,SpaceX-E
STARLINK-36044,2025-278J,2026-01-02T18:42:42.000019,15.42703741,.0001645,43.0004,127.2006,271.9976,27.5409,0,C,66799,2,1,-.32952E-1,-.14088E-1,0,7.241,SpaceX-E
STARLINK-35996,2025-278K,2026-01-02T18:52:41.999981,15.40683961,.0001495,43.0007,127.3058,266.3263,11.9759,0,C,66800,2,1,.19339E-3,.81035E-4,0,0.448,SpaceX-E
STARLINK-36080,2025-278L,2026-01-02T18:46:42.000038,15.40808583,.000107,43.0000,127.6607,275.8329,202.4506,0,C,66801,2,1,-.22547E-2,-.94546E-3,0,1.204,SpaceX-E
STARLINK-35604,2025-278M,2026-01-02T18:46:42.000038,15.46204447,.0001228,43.0003,127.1460,268.8756,61.5168,0,C,66802,2,1,-.48585E-1,-.22692E-1,0,0.687,SpaceX-E
STARLINK-35565,2025-278N,2026-01-02T18:44:42.000029,15.40663766,.000135,43.0000,127.8810,275.5762,107.9483,0,C,66803,2,1,.65584E-3,.2748E-3,0,0.334,SpaceX-E
STARLINK-36038,2025-278P,2026-01-02T18:48:41.999962,15.40698050,.0001285,43.0000,127.8352,271.5069,139.8817,0,C,66804,2,1,-.16077E-3,-.67365E-4,0,0.526,SpaceX-E
STARLINK-36049,2025-278Q,2026-01-02T18:50:41.999971,15.40668733,.0001153,42.9999,127.7656,260.0940,183.8881,0,C,66805,2,1,.52451E-3,.21977E-3,0,0.395,SpaceX-E
STARLINK-36069,2025-278R,2026-01-02T18:50:41.999971,15.40709964,.0001407,43.0001,127.6153,277.2705,228.8347,0,C,66806,2,1,.1288E-3,.5401E-4,0,0.603,SpaceX-E
STARLINK-36000,2025-278S,2026-01-02T18:47:42.000000,15.40666650,.000154,43.0001,127.5365,277.4515,254.4824,0,C,66807,2,1,.61051E-3,.25582E-3,0,0.388,SpaceX-E
STARLINK-36071,2025-278T,2026-01-02T18:42:42.000019,15.40665772,.0001423,43.0001,127.5263,274.5230,250.5693,0,C,66808,2,1,.62415E-3,.26153E-3,0,0.382,SpaceX-E
STARLINK-35979,2025-278U,2026-01-02T18:41:41.999971,15.40674739,.0001342,43.0008,127.3169,255.8037,352.5360,0,C,66809,2,1,.21723E-3,.91001E-4,0,0.391,SpaceX-E
STARLINK-36046,2025-278V,2026-01-02T18:52:41.999981,15.40692895,.0002001,43.0003,127.4261,276.5854,311.9115,0,C,66810,2,1,.25515E-3,.10696E-3,0,0.455,SpaceX-E
STARLINK-36045,2025-278W,2026-01-02T18:45:41.999990,15.40670317,.0001394,43.0004,127.4232,259.0107,314.9898,0,C,66811,2,1,.43035E-3,.1803E-3,0,0.416,SpaceX-E
STARLINK-36054,2025-278X,2026-01-02T18:45:41.999990,15.40687183,.0001246,43.0007,127.2414,255.2706,33.3312,0,C,66812,2,1,.27306E-3,.11444E-3,0,0.457,SpaceX-E
STARLINK-36042,2025-278Y,2026-01-02T18:42:42.000019,15.40670268,.0001565,43.0007,127.2221,278.9887,10.4870,0,C,66813,2,1,.67714E-3,.2838E-3,0,0.412,SpaceX-E
